[{"OBJECT_NAME":"STARLINK-4324","OBJECT_ID":"2022-077AU","EPOCH":"2026-03-09T11:58:46.507296","MEAN_MOTION":15.05648447,"ECCENTRICITY":0.00016298,"INCLINATION":97.6023,"RA_OF_ASC_NODE":250.9843,"ARG_OF_PERICENTER":86.7448,"MEAN_ANOMALY":273.3965,"EPHEMERIS_TYPE":0,"CLASSIFICATION_TYPE":"U","NORAD_CAT_ID":53085,"ELEMENT_SET_NO":999,"REV_AT_EPOCH":20095,"BSTAR":1.6558697e-5,"MEAN_MOTION_DOT":1.78e-6,"MEAN_MOTION_DDOT":0},{"OBJECT_NAME":"NTS (CANX-6)","OBJECT_ID":"2008-021B","EPOCH":"2026-03-09T21:01:43.854528","MEAN_MOTION":15.02479058,"ECCENTRICITY":0.00123192,"INCLINATION":97.9039,"RA_OF_ASC_NODE":46.2456,"ARG_OF_PERICENTER":105.3107,"MEAN_ANOMALY":254.9479,"EPHEMERIS_TYPE":0,"CLASSIFICATION_TYPE":"U","NORAD_CAT_ID":32784,"ELEMENT_SET_NO":999,"REV_AT_EPOCH":96921,"BSTAR":0.00045679857,"MEAN_MOTION_DOT":6.01e-5,"MEAN_MOTION_DDOT":0}]
